OBJECT_NAME,OBJECT_ID,EPOCH,MEAN_MOTION,ECCENTRICITY,INCLINATION,RA_OF_ASC_NODE,ARG_OF_PERICENTER,MEAN_ANOMALY,EPHEMERIS_TYPE,CLASSIFICATION_TYPE,NORAD_CAT_ID,ELEMENT_SET_NO,REV_AT_EPOCH,BSTAR,MEAN_MOTION_DOT,MEAN_MOTION_DDOT
LEMUR-2-ROUNDTRIPPER,2025-009DG,2026-07-17T03:57:43.972992,15.04249593,.0004491,97.7249,280.8085,60.2795,299.8877,0,U,62711,999,8213,.30968E-3,.4246E-4,0
LEMUR-2-MYNAMEISJEFF,2025-009DH,2026-07-16T19:56:37.510944,15.04238210,.0004219,97.7299,280.8736,93.9545,266.2163,0,U,62712,999,8208,.32714E-3,.4487E-4,0
LEMUR-2-LEIA-PHILIP,2025-052AN,2026-07-17T03:23:34.368000,14.97392123,.0005081,97.6799,89.5842,115.4351,244.7397,0,U,63246,999,7315,.46365E-5,-.4E-7,0
LEMUR-2-LIA-MARTIN,2025-052AQ,2026-07-17T03:14:31.835616,14.98037500,.0005189,97.6861,90.1001,85.6997,274.4819,0,U,63248,999,7316,.13775E-3,.157E-4,0
LEMUR-2-DELOITTE-1,2025-052BB,2026-07-17T04:23:02.986080,14.97791813,.0002529,97.6884,90.4767,62.3616,297.7863,0,U,63259,999,7318,.20729E-3,.2376E-4,0
LEMUR-2-EMERSONROSE,2025-052BD,2026-07-17T04:40:35.467680,14.99301194,.0002619,97.6883,91.1066,57.1007,303.0468,0,U,63261,999,7323,.20041E-3,.2388E-4,0
LEMUR-2-MARACHE-FRAN,2025-052BE,2026-07-17T03:35:17.539584,15.00322436,.0005417,97.6826,91.4309,244.8247,115.2415,0,U,63262,999,7325,.13621E-3,.1649E-4,0
LEMUR-2-THEFALCONER,2025-052BG,2026-07-17T03:31:06.720384,14.97567389,.0000409,97.6823,90.0298,256.4392,103.6785,0,U,63264,999,7317,.91548E-4,.1011E-4,0
LEMUR-2-UNTITLED-SC,2025-061A,2026-07-17T04:03:34.172064,15.13653035,.0019398,97.5658,173.3189,156.4933,203.7189,0,U,63351,999,7212,.9841E-4,.1709E-4,0
LEMUR-2-ESPERANZA,2025-061B,2026-07-16T21:07:06.052224,15.13758598,.0018975,97.5665,173.1323,156.6868,203.5228,0,U,63352,999,7208,.1008E-3,.1758E-4,0
LEMUR-2-KREMPEL-BRO2,2025-061C,2026-07-16T23:08:53.884320,15.14185528,.002013,97.5710,173.7874,149.4315,210.8094,0,U,63353,999,7211,.10343E-3,.1828E-4,0
LEMUR-2-THERMORAPTOR,2025-061D,2026-07-16T21:05:36.426048,15.14268321,.0019903,97.5715,173.7838,148.5683,211.6742,0,U,63354,999,7210,.11744E-3,.209E-4,0
LEMUR-2-NEUROSPICY,2025-061E,2026-07-16T21:56:39.758784,15.14386870,.001767,97.5642,173.4223,151.2367,208.9843,0,U,63355,999,7211,.86194E-4,.152E-4,0
LEMUR-2-TILLINFINITY,2025-061F,2026-07-16T20:55:50.272896,15.14971898,.0019217,97.5627,173.6916,140.4251,219.8388,0,U,63356,999,7213,.11998E-3,.218E-4,0
LEMUR-2-KREMPEL-BRO1,2025-061G,2026-07-16T21:58:13.196064,15.14778327,.0019848,97.5628,173.6423,141.6213,218.6435,0,U,63357,999,7213,.90145E-4,.1612E-4,0
LEMUR-2-LANGER2SPACE,2025-061H,2026-07-16T21:09:50.535360,15.14471760,.0017573,97.5633,173.4112,149.6905,210.5347,0,U,63358,999,7211,.1176E-3,.2103E-4,0
LEMUR-2-BALTO,2025-052BH,2026-07-16T22:24:34.244352,15.00373082,.0005044,97.6925,91.2085,320.2373,39.8480,0,U,63395,999,7322,.19881E-3,.2437E-4,0
LEMUR-2-KRISH,2025-135AK,2026-07-17T02:23:17.316672,14.96455757,.0001178,97.7771,312.7775,98.6194,261.5161,0,U,64561,999,5839,.16824E-3,.1851E-4,0
LEMUR-2-HUBBLE-4,2025-135AP,2026-07-16T21:11:24.347616,14.93688644,.0002801,97.7721,311.4455,157.7614,202.3727,0,U,64565,999,5830,.65846E-4,.64E-5,0
LEMUR-2-SEJONG-2,2025-135BL,2026-07-17T04:28:59.386944,14.96920764,.0004096,97.7709,313.0097,209.2103,150.8890,0,U,64586,999,5843,.19912E-3,.2228E-4,0
LEMUR-2-HUBBLE-5,2025-135BT,2026-07-16T21:23:16.230912,14.94215982,.0004423,97.7741,312.1245,228.3568,131.7273,0,U,64840,999,5834,.4687E-4,.445E-5,0
LEMUR-2-KARENDARRELL,2025-135BU,2026-07-16T20:43:35.067648,15.00513466,.0012627,97.7721,314.0339,99.6140,260.6511,0,U,64841,999,5846,.32901E-3,.4093E-4,0
LEMUR-2-LUCILLE-ROSE,2025-135BV,2026-07-16T21:41:24.311040,15.00500093,.0015097,97.7709,314.1091,183.8408,176.2702,0,U,65403,999,5309,.25989E-3,.322E-4,0
LEMUR-2-AFFIE-WAUWIE,2025-248C,2026-07-16T08:23:47.172192,15.28283546,.0008811,45.3891,316.8486,256.7086,103.2821,0,U,66295,999,3905,.44396E-3,.12188E-3,0
OTTER SDM,2025-276N,2026-07-17T04:53:34.012032,15.20069960,.0004402,97.4200,271.1864,244.4412,115.6368,0,U,66678,999,3497,.15141E-3,.32E-4,0
LEMUR-2-STAS-GORBUK,2025-276W,2026-07-16T23:05:54.911904,15.19669071,.0003699,97.4236,271.0004,239.2654,120.8217,0,U,66686,999,3493,.14105E-3,.2941E-4,0
LEMUR-2-TEODOR,2025-276DG,2026-07-16T17:11:17.628000,15.21346633,.0002199,97.4142,271.0320,87.3498,272.7990,0,U,66768,999,3493,.13585E-3,.2974E-4,0
LEMUR-2-LAILA,2025-276DQ,2026-07-17T03:30:22.709088,15.21575778,.0002912,97.4163,271.5951,91.7042,268.4527,0,U,66776,999,3500,.142E-3,.3133E-4,0
LEMUR-2-CELIJO-SB-PK,2025-276DW,2026-07-16T17:15:11.100672,15.00294496,.0006895,97.5191,267.5216,60.6403,299.5509,0,U,66781,999,2705,.26832E-3,.3306E-4,0
LEMUR-2-FINNIAN,2025-276DX,2026-07-16T18:07:55.043616,15.00627545,.0007216,97.5358,267.8266,354.7845,5.3303,0,U,66782,999,2443,.11832E-3,.1438E-4,0
